[{"OBJECT_NAME":"FLOCK 4G-33","OBJECT_ID":"2025-009CE","EPOCH":"2026-03-09T18:21:25.225056","MEAN_MOTION":15.2416758,"ECCENTRICITY":0.00046054,"INCLINATION":97.3987,"RA_OF_ASC_NODE":149.8529,"ARG_OF_PERICENTER":331.7862,"MEAN_ANOMALY":28.3125,"EPHEMERIS_TYPE":0,"CLASSIFICATION_TYPE":"U","NORAD_CAT_ID":62685,"ELEMENT_SET_NO":999,"REV_AT_EPOCH":6365,"BSTAR":0.00036403068,"MEAN_MOTION_DOT":8.795e-5,"MEAN_MOTION_DDOT":0},{"OBJECT_NAME":"STARLINK-36259","OBJECT_ID":"2025-299E","EPOCH":"2026-03-09T22:00:01.999584","MEAN_MOTION":15.37963448,"ECCENTRICITY":0.00013295,"INCLINATION":43.0007,"RA_OF_ASC_NODE":167.5121,"ARG_OF_PERICENTER":271.8286,"MEAN_ANOMALY":77.0727,"EPHEMERIS_TYPE":0,"CLASSIFICATION_TYPE":"U","NORAD_CAT_ID":67106,"ELEMENT_SET_NO":999,"REV_AT_EPOCH":590,"BSTAR":-0.06132752,"MEAN_MOTION_DOT":-0.02109639,"MEAN_MOTION_DDOT":0}]
